NORAD_CAT_ID,OBJECT_NAME,OBJECT_TYPE,EPOCH,MEAN_MOTION,ECCENTRICITY,INCLINATION,RA_OF_ASC_NODE,ARG_OF_PERICENTER,MEAN_ANOMALY,BSTAR,MEAN_MOTION_DOT,MEAN_MOTION_DDOT,TLE_LINE0,TLE_LINE1,TLE_LINE2,SEMIMAJOR_AXIS,PERIOD,APOGEE,PERIGEE,DECAYED
49147.0,STARLINK-3071,PAYLOAD,2024-07-13 14:51:40,14.98325545,0.0003101,70.0007,337.5355,270.4935,89.5868,3.5768e-05,3.34e-06,0.0,0 STARLINK-3071,1 49147U 21082T   24195.61921993  .00000334  00000-0  35768-4 0  9992,2 49147  70.0007 337.5355 0003101 270.4935  89.5868 14.98325545156481,6950.207,96.107,574.227,569.916,0.0
49147.0,STARLINK-3071,PAYLOAD,2024-07-13 19:40:04,14.98334182,0.0003086,70.0007,337.0304,271.6398,88.4407,0.0001711,1.949e-05,0.0,0 STARLINK-3071,1 49147U 21082T   24195.81949108  .00001949  00000-0  17110-3 0  9995,2 49147  70.0007 337.0304 0003086 271.6398  88.4407 14.98334182157685,6950.18,96.107,574.19,569.9,0.0
49147.0,STARLINK-3071,PAYLOAD,2024-07-14 13:17:33,14.98328877,0.0003053,70.0009,335.179,271.2097,88.8712,3.5226e-05,3.27e-06,0.0,0 STARLINK-3071,1 49147U 21082T   24196.55385659  .00000327  00000-0  35226-4 0  9990,2 49147  70.0009 335.1790 0003053 271.2097  88.8712 14.98328877157790,6950.196,96.107,574.183,569.939,0.0
49147.0,STARLINK-3071,PAYLOAD,2024-07-14 14:53:41,14.98331,0.0003026,70.001,335.0106,271.7915,88.2898,6.3725e-05,6.67e-06,0.0,0 STARLINK-3071,1 49147U 21082T   24196.62061457  .00000667  00000-0  63725-4 0  9997,2 49147  70.0010 335.0106 0003026 271.7915  88.2898 14.98331000156639,6950.19,96.107,574.158,569.952,0.0
49147.0,STARLINK-3071,PAYLOAD,2024-07-14 19:42:04,14.98337512,0.0002951,70.0013,334.5062,268.8489,91.2332,9.4816e-05,1.039e-05,0.0,0 STARLINK-3071,1 49147U 21082T   24196.82088886  .00001039  00000-0  94816-4 0  9993,2 49147  70.0013 334.5062 0002951 268.8489  91.2332 14.98337512157830,6950.17,96.107,574.086,569.984,0.0
49147.0,STARLINK-3071,PAYLOAD,2024-07-15 13:19:34,14.98328647,0.0002732,70.0024,332.6551,266.8965,93.1881,3.3656e-05,3.09e-06,0.0,0 STARLINK-3071,1 49147U 21082T   24197.55525526  .00000309  00000-0  33656-4 0  9995,2 49147  70.0024 332.6551 0002732 266.8965  93.1881 14.98328647157949,6950.197,96.107,573.961,570.163,0.0
49147.0,STARLINK-3071,PAYLOAD,2024-07-15 14:55:42,14.98329425,0.0002736,70.0023,332.4868,267.0611,93.0235,3.5918e-05,3.36e-06,0.0,0 STARLINK-3071,1 49147U 21082T   24197.62201473  .00000336  00000-0  35918-4 0  9998,2 49147  70.0023 332.4868 0002736 267.0611  93.0235 14.98329425156780,6950.195,96.107,573.961,570.158,0.0
49147.0,STARLINK-3071,PAYLOAD,2024-07-15 18:07:58,14.98329574,0.0002686,70.0022,332.1502,264.6047,95.4805,1.8193e-05,1.24e-06,0.0,0 STARLINK-3071,1 49147U 21082T   24197.75553508  .00000124  00000-0  18193-4 0  9992,2 49147  70.0022 332.1502 0002686 264.6047  95.4805 14.98329574156808,6950.194,96.107,573.926,570.192,0.0
49147.0,STARLINK-3071,PAYLOAD,2024-07-16 13:21:34,14.98330931,0.0002711,70.0021,330.1309,266.0865,93.9984,1.3327e-05,6.6e-07,0.0,0 STARLINK-3071,1 49147U 21082T   24198.55665336  .00000066  00000-0  13327-4 0  9993,2 49147  70.0021 330.1309 0002711 266.0865  93.9984 14.98330931158096,6950.19,96.107,573.939,570.171,0.0
49147.0,STARLINK-3071,PAYLOAD,2024-07-16 16:33:50,14.98333792,0.0002815,70.0019,329.7944,268.3945,91.6891,6.4509e-05,6.77e-06,0.0,0 STARLINK-3071,1 49147U 21082T   24198.69016996  .00000677  00000-0  64509-4 0  9996,2 49147  70.0019 329.7944 0002815 268.3945  91.6891 14.98333792156943,6950.181,96.107,574.003,570.09,0.0
49147.0,STARLINK-3071,PAYLOAD,2024-07-17 11:47:28,14.98320443,0.0002978,70.0013,327.7737,265.5547,94.5272,5.1186e-06,-3.2e-07,0.0,0 STARLINK-3071,1 49147U 21082T   24199.49130056 -.00000032  00000-0  51186-5 0  9993,2 49147  70.0013 327.7737 0002978 265.5547  94.5272 14.98320443158230,6950.222,96.108,574.157,570.018,0.0
49147.0,STARLINK-3071,PAYLOAD,2024-07-17 14:59:44,14.98325054,0.0003048,70.0008,327.4363,267.6473,92.4337,-4.3744e-05,-6.15e-06,0.0,0 STARLINK-3071,1 49147U 21082T   24199.62481979 -.00000615  00000-0 -43744-4 0  9999,2 49147  70.0008 327.4363 0003048 267.6473  92.4337 14.98325054157080,6950.208,96.107,574.192,569.955,0.0
49147.0,STARLINK-3071,PAYLOAD,2024-07-17 18:12:00,14.98326878,0.0002876,70.0015,327.1011,268.3393,91.7436,-9.8019e-06,-2.1e-06,0.0,0 STARLINK-3071,1 49147U 21082T   24199.75833851 -.00000210  00000-0 -98019-5 0  9990,2 49147  70.0015 327.1011 0002876 268.3393  91.7436 14.98326878157102,6950.203,96.107,574.066,570.069,0.0
49147.0,STARLINK-3071,PAYLOAD,2024-07-18 13:25:37,14.98329556,0.000289,70.0015,325.0817,268.6848,91.398,5.9814e-05,6.21e-06,0.0,0 STARLINK-3071,1 49147U 21082T   24200.55945688  .00000621  00000-0  59814-4 0  9996,2 49147  70.0015 325.0817 0002890 268.6848  91.3980 14.98329556158395,6950.194,96.107,574.068,570.051,0.0
49147.0,STARLINK-3071,PAYLOAD,2024-07-18 15:01:44,14.98333932,0.0003199,70.0016,324.914,274.8083,85.2711,7.8674e-05,8.46e-06,0.0,0 STARLINK-3071,1 49147U 21082T   24200.62621367  .00000846  00000-0  78674-4 0  9993,2 49147  70.0016 324.9140 0003199 274.8083  85.2711 14.98333932157235,6950.181,96.107,574.269,569.822,0.0
49147.0,STARLINK-3071,PAYLOAD,2024-07-18 18:14:00,14.98338401,0.0002985,70.0013,324.5769,270.1486,89.9331,8.314e-05,8.99e-06,0.0,0 STARLINK-3071,1 49147U 21082T   24200.75973040  .00000899  00000-0  83140-4 0  9997,2 49147  70.0013 324.5769 0002985 270.1486  89.9331 14.98338401157250,6950.167,96.106,574.107,569.957,0.0
49147.0,STARLINK-3071,PAYLOAD,2024-07-19 11:51:29,14.98325986,0.0002714,70.0019,322.725,266.8939,93.191,0.00014805,1.674e-05,0.0,0 STARLINK-3071,1 49147U 21082T   24201.49409657  .00001674  00000-0  14805-3 0  9990,2 49147  70.0019 322.7250 0002714 266.8939  93.1910 14.98325986158532,6950.205,96.107,573.957,570.184,0.0
49147.0,STARLINK-3071,PAYLOAD,2024-07-19 15:03:45,14.98328329,0.0002768,70.0019,322.3884,266.7631,93.3211,0.00017355,1.978e-05,0.0,0 STARLINK-3071,1 49147U 21082T   24201.62761491  .00001978  00000-0  17355-3 0  9992,2 49147  70.0019 322.3884 0002768 266.7631  93.3211 14.98328329157380,6950.198,96.107,573.987,570.139,0.0
49147.0,STARLINK-3071,PAYLOAD,2024-07-19 18:16:01,14.98332373,0.0002711,70.0022,322.0513,267.1721,92.9127,0.00018594,2.126e-05,0.0,0 STARLINK-3071,1 49147U 21082T   24201.76113200  .00002126  00000-0  18594-3 0  9998,2 49147  70.0022 322.0513 0002711 267.1721  92.9127 14.98332373157401,6950.186,96.107,573.935,570.166,0.0
49147.0,STARLINK-3071,PAYLOAD,2024-07-20 13:29:38,14.98330984,0.0002606,70.0025,320.0329,264.3862,95.7,4.5355e-05,4.48e-06,0.0,0 STARLINK-3071,1 49147U 21082T   24202.56225556  .00000448  00000-0  45355-4 0  9996,2 49147  70.0025 320.0329 0002606 264.3862  95.7000 14.98330984157525,6950.19,96.107,573.866,570.244,0.0
49147.0,STARLINK-3071,PAYLOAD,2024-07-20 18:18:02,14.98335643,0.0002666,70.0024,319.5277,266.0644,94.021,9.86e-05,1.084e-05,0.0,0 STARLINK-3071,1 49147U 21082T   24202.76253053  .00001084  00000-0  98600-4 0  9999,2 49147  70.0024 319.5277 0002666 266.0644  94.0210 14.98335643158727,6950.175,96.107,573.893,570.188,0.0
49147.0,STARLINK-3071,PAYLOAD,2024-07-21 00:42:34,14.98358624,0.0003004,70.0014,318.8519,275.6595,84.4222,-0.00044688,-5.425e-05,0.0,0 STARLINK-3071,1 49147U 21082T   24203.02956535 -.00005425  00000-0 -44688-3 0  9995,2 49147  70.0014 318.8519 0003004 275.6595  84.4222 14.98358624158769,6950.104,96.105,574.057,569.882,0.0
49147.0,STARLINK-3071,PAYLOAD,2024-07-21 11:55:32,14.98323206,0.0002685,70.0019,317.6757,260.7601,99.3254,-6.021e-05,-8.11e-06,0.0,0 STARLINK-3071,1 49147U 21082T   24203.49690214 -.00000811  00000-0 -60210-4 0  9999,2 49147  70.0019 317.6757 0002685 260.7601  99.3254 14.98323206158838,6950.214,96.107,573.945,570.213,0.0
49147.0,STARLINK-3071,PAYLOAD,2024-07-21 15:07:48,14.98324184,0.0002624,70.0022,317.3389,259.4566,100.6298,-3.4771e-05,-5.08e-06,0.0,0 STARLINK-3071,1 49147U 21082T   24203.63042121 -.00000508  00000-0 -34771-4 0  9999,2 49147  70.0022 317.3389 0002624 259.4566 100.6298 14.98324184157680,6950.211,96.107,573.9,570.252,0.0
49147.0,STARLINK-3071,PAYLOAD,2024-07-21 16:43:56,14.98314719,0.0002837,70.0024,317.171,259.8319,100.252,0.0001904,2.179e-05,0.0,0 STARLINK-3071,1 49147U 21082T   24203.69718200  .00002179  00000-0  19040-3 0  9998,2 49147  70.0024 317.1710 0002837 259.8319 100.2520 14.98314719157692,6950.24,96.108,574.077,570.133,0.0
49147.0,STARLINK-3071,PAYLOAD,2024-07-22 10:21:24,14.98332248,0.0002541,70.0021,315.3193,263.502,96.585,3.2807e-05,2.99e-06,0.0,0 STARLINK-3071,1 49147U 21082T   24204.43153465  .00000299  00000-0  32807-4 0  9995,2 49147  70.0021 315.3193 0002541 263.5020  96.5850 14.98332248158979,6950.186,96.107,573.817,570.285,0.0
49147.0,STARLINK-3071,PAYLOAD,2024-07-22 18:22:04,14.98338849,0.0002503,70.0021,314.4775,262.1454,97.9421,9.8692e-05,1.085e-05,0.0,0 STARLINK-3071,1 49147U 21082T   24204.76532792  .00001085  00000-0  98692-4 0  9993,2 49147  70.0021 314.4775 0002503 262.1454  97.9421 14.98338849159028,6950.166,96.106,573.77,570.291,0.0
49147.0,STARLINK-3071,PAYLOAD,2024-07-23 13:35:41,14.98331547,0.000295,69.9985,312.4506,259.379,100.7037,6.0611e-05,6.3e-06,0.0,0 STARLINK-3071,1 49147U 21082T   24205.56645265  .00000630  00000-0  60611-4 0  9997,2 49147  69.9985 312.4506 0002950 259.3790 100.7037 14.98331547159148,6950.188,96.107,574.103,570.003,0.0
49147.0,STARLINK-3071,PAYLOAD,2024-07-23 16:47:57,14.98331931,0.0002747,69.9988,312.1147,255.4921,104.5933,8.6181e-05,9.35e-06,0.0,0 STARLINK-3071,1 49147U 21082T   24205.69997173  .00000935  00000-0  86181-4 0  9997,2 49147  69.9988 312.1147 0002747 255.4921 104.5933 14.98331931157991,6950.187,96.107,573.961,570.143,0.0
49147.0,STARLINK-3071,PAYLOAD,2024-07-24 10:25:26,14.98329335,0.0002709,69.9999,310.2657,259.7173,100.3681,-2.3151e-05,-3.69e-06,0.0,0 STARLINK-3071,1 49147U 21082T   24206.43433646 -.00000369  00000-0 -23151-4 0  9991,2 49147  69.9999 310.2657 0002709 259.7173 100.3681 14.98329335158105,6950.195,96.107,573.943,570.177,0.0
